CCSDS_OMM_VERS = 2.0
CREATION_DATE  = 
ORIGINATOR     = 

OBJECT_NAME    = ATLAS CENTAUR 2
OBJECT_ID      = 1963-047A
CENTER_NAME    = EARTH
REF_FRAME      = TEME
TIME_SYSTEM    = UTC
MEAN_ELEMENT_THEORY = SGP/SGP4

EPOCH          = 2025-12-31T21:14:43.726848
MEAN_MOTION    = 14.11846978
ECCENTRICITY   = .0548646
INCLINATION    = 30.3538
RA_OF_ASC_NODE = 214.5075
ARG_OF_PERICENTER = 202.8477
MEAN_ANOMALY   = 154.6809

EPHEMERIS_TYPE = 0
CLASSIFICATION_TYPE = U
NORAD_CAT_ID   = 694
ELEMENT_SET_NO = 999
REV_AT_EPOCH   = 12203
BSTAR          = .36728E-3
MEAN_MOTION_DOT = .3109E-4
MEAN_MOTION_DDOT = 0

CCSDS_OMM_VERS = 2.0
CREATION_DATE  = 
ORIGINATOR     = 

OBJECT_NAME    = THOR AGENA D R/B
OBJECT_ID      = 1964-002A
CENTER_NAME    = EARTH
REF_FRAME      = TEME
TIME_SYSTEM    = UTC
MEAN_ELEMENT_THEORY = SGP/SGP4

EPOCH          = 2025-12-31T21:51:35.661888
MEAN_MOTION    = 14.33972519
ECCENTRICITY   = .0033871
INCLINATION    = 99.1218
RA_OF_ASC_NODE = 10.5662
ARG_OF_PERICENTER = 95.6643
MEAN_ANOMALY   = 264.8404

EPHEMERIS_TYPE = 0
CLASSIFICATION_TYPE = U
NORAD_CAT_ID   = 733
ELEMENT_SET_NO = 999
REV_AT_EPOCH   = 22858
BSTAR          = .171E-3
MEAN_MOTION_DOT = .432E-5
MEAN_MOTION_DDOT = 0

CCSDS_OMM_VERS = 2.0
CREATION_DATE  = 
ORIGINATOR     = 

OBJECT_NAME    = SL-3 R/B
OBJECT_ID      = 1964-053B
CENTER_NAME    = EARTH
REF_FRAME      = TEME
TIME_SYSTEM    = UTC
MEAN_ELEMENT_THEORY = SGP/SGP4

EPOCH          = 2025-12-31T20:55:35.143392
MEAN_MOTION    = 14.61292426
ECCENTRICITY   = .0075537
INCLINATION    = 65.0760
RA_OF_ASC_NODE = 170.0508
ARG_OF_PERICENTER = 314.0089
MEAN_ANOMALY   = 45.4801

EPHEMERIS_TYPE = 0
CLASSIFICATION_TYPE = U
NORAD_CAT_ID   = 877
ELEMENT_SET_NO = 999
REV_AT_EPOCH   = 25688
BSTAR          = .12467E-3
MEAN_MOTION_DOT = .517E-5
MEAN_MOTION_DDOT = 0

CCSDS_OMM_VERS = 2.0
CREATION_DATE  = 
ORIGINATOR     = 

OBJECT_NAME    = SL-8 R/B
OBJECT_ID      = 1967-045B
CENTER_NAME    = EARTH
REF_FRAME      = TEME
TIME_SYSTEM    = UTC
MEAN_ELEMENT_THEORY = SGP/SGP4

EPOCH          = 2025-12-31T16:27:56.956032
MEAN_MOTION    = 14.45559849
ECCENTRICITY   = .00633511
INCLINATION    = 74.0117
RA_OF_ASC_NODE = 115.0853
ARG_OF_PERICENTER = 139.6470
MEAN_ANOMALY   = 220.9414

EPHEMERIS_TYPE = 0
CLASSIFICATION_TYPE = U
NORAD_CAT_ID   = 2802
ELEMENT_SET_NO = 999
REV_AT_EPOCH   = 7919
BSTAR          = .23186918E-3
MEAN_MOTION_DOT = .811E-5
MEAN_MOTION_DDOT = 0

CCSDS_OMM_VERS = 2.0
CREATION_DATE  = 
ORIGINATOR     = 

OBJECT_NAME    = SL-8 R/B
OBJECT_ID      = 1968-040B
CENTER_NAME    = EARTH
REF_FRAME      = TEME
TIME_SYSTEM    = UTC
MEAN_ELEMENT_THEORY = SGP/SGP4

EPOCH          = 2025-12-31T17:58:15.783456
MEAN_MOTION    = 15.02684755
ECCENTRICITY   = .0026296
INCLINATION    = 74.0330
RA_OF_ASC_NODE = 92.4604
ARG_OF_PERICENTER = 291.1422
MEAN_ANOMALY   = 68.6956

EPHEMERIS_TYPE = 0
CLASSIFICATION_TYPE = U
NORAD_CAT_ID   = 3230
ELEMENT_SET_NO = 999
REV_AT_EPOCH   = 7980
BSTAR          = .45148944E-3
MEAN_MOTION_DOT = .6033E-4
MEAN_MOTION_DDOT = 0

CCSDS_OMM_VERS = 2.0
CREATION_DATE  = 
ORIGINATOR     = 

OBJECT_NAME    = OAO 2
OBJECT_ID      = 1968-110A
CENTER_NAME    = EARTH
REF_FRAME      = TEME
TIME_SYSTEM    = UTC
MEAN_ELEMENT_THEORY = SGP/SGP4

EPOCH          = 2026-01-01T00:52:06.242304
MEAN_MOTION    = 14.47258060
ECCENTRICITY   = .0005311
INCLINATION    = 34.9938
RA_OF_ASC_NODE = 282.9371
ARG_OF_PERICENTER = 8.1360
MEAN_ANOMALY   = 351.9416

EPHEMERIS_TYPE = 0
CLASSIFICATION_TYPE = U
NORAD_CAT_ID   = 3597
ELEMENT_SET_NO = 999
REV_AT_EPOCH   = 929
BSTAR          = .13554E-3
MEAN_MOTION_DOT = .483E-5
MEAN_MOTION_DDOT = 0

CCSDS_OMM_VERS = 2.0
CREATION_DATE  = 
ORIGINATOR     = 

OBJECT_NAME    = ISIS 1
OBJECT_ID      = 1969-009A
CENTER_NAME    = EARTH
REF_FRAME      = TEME
TIME_SYSTEM    = UTC
MEAN_ELEMENT_THEORY = SGP/SGP4

EPOCH          = 2025-12-31T19:48:20.957184
MEAN_MOTION    = 11.30366649
ECCENTRICITY   = .1707298
INCLINATION    = 88.4502
RA_OF_ASC_NODE = 162.7091
ARG_OF_PERICENTER = 226.1309
MEAN_ANOMALY   = 118.5684

EPHEMERIS_TYPE = 0
CLASSIFICATION_TYPE = U
NORAD_CAT_ID   = 3669
ELEMENT_SET_NO = 999
REV_AT_EPOCH   = 34086
BSTAR          = .39876E-3
MEAN_MOTION_DOT = .557E-5
MEAN_MOTION_DDOT = 0

CCSDS_OMM_VERS = 2.0
CREATION_DATE  = 
ORIGINATOR     = 

OBJECT_NAME    = SERT 2
OBJECT_ID      = 1970-009A
CENTER_NAME    = EARTH
REF_FRAME      = TEME
TIME_SYSTEM    = UTC
MEAN_ELEMENT_THEORY = SGP/SGP4

EPOCH          = 2025-12-31T21:07:39.895968
MEAN_MOTION    = 13.58720893
ECCENTRICITY   = .0004783
INCLINATION    = 99.2675
RA_OF_ASC_NODE = 307.7149
ARG_OF_PERICENTER = 348.3239
MEAN_ANOMALY   = 79.2685

EPHEMERIS_TYPE = 0
CLASSIFICATION_TYPE = U
NORAD_CAT_ID   = 4327
ELEMENT_SET_NO = 999
REV_AT_EPOCH   = 77068
BSTAR          = .13329E-3
MEAN_MOTION_DOT = .56E-6
MEAN_MOTION_DDOT = 0

CCSDS_OMM_VERS = 2.0
CREATION_DATE  = 
ORIGINATOR     = 

OBJECT_NAME    = SL-3 R/B
OBJECT_ID      = 1971-028B
CENTER_NAME    = EARTH
REF_FRAME      = TEME
TIME_SYSTEM    = UTC
MEAN_ELEMENT_THEORY = SGP/SGP4

EPOCH          = 2026-01-01T02:36:35.919648
MEAN_MOTION    = 15.55788815
ECCENTRICITY   = .0018692
INCLINATION    = 81.2376
RA_OF_ASC_NODE = 135.1535
ARG_OF_PERICENTER = 171.2669
MEAN_ANOMALY   = 188.8910

EPHEMERIS_TYPE = 0
CLASSIFICATION_TYPE = U
NORAD_CAT_ID   = 5118
ELEMENT_SET_NO = 999
REV_AT_EPOCH   = 97814
BSTAR          = .71964E-3
MEAN_MOTION_DOT = .50297E-3
MEAN_MOTION_DDOT = 0

CCSDS_OMM_VERS = 2.0
CREATION_DATE  = 
ORIGINATOR     = 

OBJECT_NAME    = ASTEX 1
OBJECT_ID      = 1971-089A
CENTER_NAME    = EARTH
REF_FRAME      = TEME
TIME_SYSTEM    = UTC
MEAN_ELEMENT_THEORY = SGP/SGP4

EPOCH          = 2025-12-31T21:08:48.526944
MEAN_MOTION    = 14.50669747
ECCENTRICITY   = .0014058
INCLINATION    = 92.7153
RA_OF_ASC_NODE = 129.8137
ARG_OF_PERICENTER = 319.9638
MEAN_ANOMALY   = 40.0531

EPHEMERIS_TYPE = 0
CLASSIFICATION_TYPE = U
NORAD_CAT_ID   = 5560
ELEMENT_SET_NO = 999
REV_AT_EPOCH   = 85247
BSTAR          = .26355E-3
MEAN_MOTION_DOT = .1034E-4
MEAN_MOTION_DDOT = 0

CCSDS_OMM_VERS = 2.0
CREATION_DATE  = 
ORIGINATOR     = 

OBJECT_NAME    = SL-8 R/B
OBJECT_ID      = 1971-119B
CENTER_NAME    = EARTH
REF_FRAME      = TEME
TIME_SYSTEM    = UTC
MEAN_ELEMENT_THEORY = SGP/SGP4

EPOCH          = 2026-01-01T04:38:17.543040
MEAN_MOTION    = 14.36230521
ECCENTRICITY   = .055768
INCLINATION    = 73.8898
RA_OF_ASC_NODE = 301.7254
ARG_OF_PERICENTER = 282.0859
MEAN_ANOMALY   = 71.8359

EPHEMERIS_TYPE = 0
CLASSIFICATION_TYPE = U
NORAD_CAT_ID   = 5730
ELEMENT_SET_NO = 999
REV_AT_EPOCH   = 64579
BSTAR          = .71452E-3
MEAN_MOTION_DOT = .13791E-3
MEAN_MOTION_DDOT = 0

CCSDS_OMM_VERS = 2.0
CREATION_DATE  = 
ORIGINATOR     = 

OBJECT_NAME    = OAO 3 (COPERNICUS)
OBJECT_ID      = 1972-065A
CENTER_NAME    = EARTH
REF_FRAME      = TEME
TIME_SYSTEM    = UTC
MEAN_ELEMENT_THEORY = SGP/SGP4

EPOCH          = 2025-12-31T21:19:19.500960
MEAN_MOTION    = 14.59927072
ECCENTRICITY   = .0006968
INCLINATION    = 35.0072
RA_OF_ASC_NODE = 323.5861
ARG_OF_PERICENTER = 321.1088
MEAN_ANOMALY   = 66.2705

EPHEMERIS_TYPE = 0
CLASSIFICATION_TYPE = U
NORAD_CAT_ID   = 6153
ELEMENT_SET_NO = 999
REV_AT_EPOCH   = 83628
BSTAR          = .16488E-3
MEAN_MOTION_DOT = .781E-5
MEAN_MOTION_DDOT = 0

