ATLAS CENTAUR 2         
1 00694U 63047A   25365.88522832  .00003109  00000+0  36728-3 0  9999
2 00694  30.3538 214.5075 0548646 202.8477 154.6809 14.11846978122030
THOR AGENA D R/B        
1 00733U 64002A   25365.91082942  .00000432  00000+0  17100-3 0  9991
2 00733  99.1218  10.5662 0033871  95.6643 264.8404 14.33972519228587
SL-3 R/B                
1 00877U 64053B   25365.87193453  .00000517  00000+0  12467-3 0  9996
2 00877  65.0760 170.0508 0075537 314.0089  45.4801 14.61292426256889
SL-8 R/B                
1 02802U 67045B   25365.68607588  .00000811  00000+0  23187-3 0  9996
2 02802  74.0117 115.0853 0063351 139.6470 220.9414 14.45559849 79197
SL-8 R/B                
1 03230U 68040B   25365.74879379  .00006033  00000+0  45149-3 0  9998
2 03230  74.0330  92.4604 0026296 291.1422  68.6956 15.02684755 79805
OAO 2                   
1 03597U 68110A   26001.03618336  .00000483  00000+0  13554-3 0  9994
2 03597  34.9938 282.9371 0005311   8.1360 351.9416 14.47258060  9298
ISIS 1                  
1 03669U 69009A   25365.82524256  .00000557  00000+0  39876-3 0  9995
2 03669  88.4502 162.7091 1707298 226.1309 118.5684 11.30366649340869
SERT 2                  
1 04327U 70009A   25365.88032287  .00000056  00000+0  13329-3 0  9992
2 04327  99.2675 307.7149 0004783 348.3239  79.2685 13.58720893770682
SL-3 R/B                
1 05118U 71028B   26001.10874907  .00050297  00000+0  71964-3 0  9990
2 05118  81.2376 135.1535 0018692 171.2669 188.8910 15.55788815978142
ASTEX 1                 
1 05560U 71089A   25365.88111721  .00001034  00000+0  26355-3 0  9992
2 05560  92.7153 129.8137 0014058 319.9638  40.0531 14.50669747852471
SL-8 R/B                
1 05730U 71119B   26001.19325860  .00013791  00000+0  71452-3 0  9999
2 05730  73.8898 301.7254 0557680 282.0859  71.8359 14.36230521645798
OAO 3 (COPERNICUS)      
1 06153U 72065A   25365.88842015  .00000781  00000+0  16488-3 0  9997
2 06153  35.0072 323.5861 0006968 321.1088  66.2705 14.59927072836283
